ONEWEB-0230             
1 48769U 21045C   24039.64088546 -.00000099  00000+0 -29645-3 0  9993
2 48769  87.8949  70.3416 0001999  97.4231 262.7127 13.15548926131653
ONEWEB-0237             
1 48770U 21045D   24040.08613257  .00000132  00000+0  31662-3 0  9996
2 48770  87.8955  70.1761 0002297  87.9592 272.1801 13.15548455132561
ONEWEB-0235             
1 48771U 21045E   24039.60443593  .00000224  00000+0  56099-3 0  9990
2 48771  87.8946  70.2929 0002657  88.0662 272.0773 13.15547189132480
ONEWEB-0242             
1 48772U 21045F   24039.59809966  .00000146  00000+0  35413-3 0  9999
2 48772  87.8946  70.2837 0002119  94.9401 265.1971 13.15547412131402
ONEWEB-0241             
1 48773U 21045G   24040.11782157  .00000035  00000+0  59472-4 0  9991
2 48773  87.8956  70.2145 0002046  80.9821 279.1541 13.15548434132512
ONEWEB-0243             
1 48774U 21045H   24040.14951153  .00000133  00000+0  31964-3 0  9993
2 48774  87.8956  70.1662 0002349  91.4430 268.6970 13.15547573132540
ONEWEB-0222             
1 48775U 21045J   24039.60752926  .00000218  00000+0  54534-3 0  9992
2 48775  87.8945  70.2955 0002072  85.5547 274.5820 13.15548662132507
ONEWEB-0244             
1 48776U 21045K   24039.62661790  .00000064  00000+0  13532-3 0  9995
2 48776  87.8945  70.2728 0002149  97.6901 262.4473 13.15548312131959
